     2.100          NAVIGATION                              RINEX VERSION / TYPE
fic2rin                                 06/17/2009 01:48:54 PGM / RUN BY / DATE
                                                            END OF HEADER
32 09  6 16 18  0  0.0  .246187672019D-03 -.557065504836D-11  .000000000000D+00
     .820000000000D+02  .154375000000D+02  .463733602080D-08 -.310042592086D+01
     .625848770142D-06  .132962843636D-01  .403635203838D-05  .515354554176D+04
     .237600000000D+06  .124797224998D-06  .360241787871D+00  .227242708206D-06
     .964029917178D+00  .296468750000D+03 -.115840329123D+01 -.812712424163D-08
     .185722021782D-10  .100000000000D+01  .153600000000D+04  .000000000000D+00
     .240000000000D+01  .000000000000D+00 -.325962901115D-08  .820000000000D+02
     .230406000000D+06  .400000000000D+01
 9 09  6 16 17 59 44.0  .615315511823D-04  .204636307899D-11  .000000000000D+00
     .340000000000D+02 -.141875000000D+02  .423160483476D-08  .144263577194D+01
    -.114366412163D-05  .206609973684D-01  .836141407490D-05  .515363768005D+04
     .237584000000D+06 -.229105353355D-06  .233638446548D+01 -.527128577232D-06
     .976608680769D+00  .230031250000D+03  .148291411547D+01 -.795533137148D-08
     .228580949885D-09  .100000000000D+01  .153600000000D+04  .000000000000D+00
     .240000000000D+01  .000000000000D+00 -.558793544769D-08  .340000000000D+02
     .232446000000D+06  .400000000000D+01
23 09  6 16 17 59 44.0  .390216242522D-03  .000000000000D+00  .000000000000D+00
     .000000000000D+00 -.452187500000D+02  .440375486264D-08 -.229887322271D+01
    -.228732824326D-05  .620945508126D-02  .864453613758D-05  .515360437393D+04
     .237584000000D+06 -.115483999252D-06  .132800907892D+01 -.596046447754D-07
     .970152905208D+00  .222875000000D+03  .289511294489D+01 -.800033324599D-08
    -.113576159474D-09  .100000000000D+01  .153600000000D+04  .000000000000D+00
     .240000000000D+01  .000000000000D+00 -.200234353542D-07  .000000000000D+00
     .234096000000D+06  .400000000000D+01
 9 09  6 16 19 59 44.0  .615459866822D-04  .204636307899D-11  .000000000000D+00
     .360000000000D+02 -.209375000000D+02  .417017370447D-08  .249290949802D+01
    -.119209289551D-05  .206616179785D-01  .838562846184D-05  .515363467407D+04
     .244784000000D+06  .206753611565D-06  .233632977575D+01 -.245869159698D-06
     .976611965020D+00  .220437500000D+03  .148284145233D+01 -.752459914404D-08
     .162506769059D-09  .100000000000D+01  .153600000000D+04  .000000000000D+00
     .240000000000D+01  .000000000000D+00 -.558793544769D-08  .360000000000D+02
     .237606000000D+06  .400000000000D+01
23 09  6 16 19 59 44.0  .390216242522D-03  .000000000000D+00  .000000000000D+00
     .380000000000D+02 -.435625000000D+02  .433768068181D-08 -.124872973877D+01
    -.260397791862D-05  .620913540479D-02  .800751149654D-05  .515360357666D+04
     .244784000000D+06  .521540641785D-07  .132795043053D+01 -.577419996262D-07
     .970152308338D+00  .229468750000D+03  .289519181666D+01 -.808069373619D-08
     .642883921553D-11  .100000000000D+01  .153600000000D+04  .000000000000D+00
     .240000000000D+01  .000000000000D+00 -.200234353542D-07  .380000000000D+02
     .237606000000D+06  .400000000000D+01
 1 09  6 16 20  0  0.0 -.762050040066D-04  .545696821064D-11  .000000000000D+00
     .830000000000D+02 -.204687500000D+02  .611418325170D-08  .140551677554D+01
    -.106543302536D-05  .349265802652D-02  .598095357418D-05  .515375734901D+04
     .244800000000D+06 -.912696123123D-07 -.287336590546D+01  .894069671631D-07
     .961288840259D+00  .265593750000D+03  .909043096837D+00 -.826963017758D-08
     .114290474943D-10  .100000000000D+01  .153600000000D+04  .000000000000D+00
     .340000000000D+01  .630000000000D+02 -.130385160446D-07  .830000000000D+02
     .237606000000D+06  .400000000000D+01
 2 09  6 16 20  0  0.0  .156593974680D-03  .113686837722D-11  .000000000000D+00
     .260000000000D+02  .625000000000D+02  .473162566263D-08 -.113493212824D+01
     .324845314026D-05  .906860502437D-02  .929273664951D-05  .515367152023D+04
     .244800000000D+06 -.115483999252D-06 -.785253482262D+00 -.195577740669D-06
     .941160629404D+00  .192250000000D+03  .284253150858D+01 -.817105464294D-08
     .231081054025D-09  .100000000000D+01  .153600000000D+04  .000000000000D+00
     .240000000000D+01  .000000000000D+00 -.172294676304D-07  .260000000000D+02
     .237606000000D+06  .400000000000D+01
 3 09  6 16 20  0  0.0  .407552812248D-03  .511590769747D-11  .000000000000D+00
     .400000000000D+02 -.231250000000D+02  .525736184737D-08 -.145281854343D+01
    -.125169754028D-05  .119343417464D-01  .861473381519D-05  .515363315392D+04
     .244800000000D+06  .340864062309D-06 -.193350363341D+01  .447034835815D-07
     .926052587247D+00  .194218750000D+03  .905886617014D+00 -.826355849609D-08
    -.360014996070D-09  .100000000000D+01  .153600000000D+04  .000000000000D+00
     .340000000000D+01  .000000000000D+00 -.419095158577D-08  .400000000000D+02
     .237606000000D+06  .400000000000D+01
 4 09  6 16 20  0  0.0 -.135720707476D-03 -.159161572810D-10  .000000000000D+00
     .490000000000D+02  .720000000000D+02  .482698677766D-08  .173895738194D+01
     .376813113689D-05  .858191854786D-02  .926293432713D-05  .515375952530D+04
     .244800000000D+06 -.707805156708D-07 -.766905951385D+00  .186264514923D-07
     .940379643272D+00  .192687500000D+03  .489396873938D+00 -.826248702289D-08
     .289297764699D-10  .100000000000D+01  .153600000000D+04  .000000000000D+00
     .240000000000D+01  .000000000000D+00 -.605359673500D-08  .490000000000D+02
     .237606000000D+06  .400000000000D+01
 6 09  6 16 20  0  0.0  .163172371686D-03  .130739863380D-10  .000000000000D+00
     .890000000000D+02 -.286562500000D+02  .509985528659D-08  .977492376915D+00
    -.176951289177D-05  .599126529414D-02  .918656587601D-05  .515370149994D+04
     .244800000000D+06  .745058059692D-08 -.186572874686D+01 -.894069671631D-07
     .933495845678D+00  .191781250000D+03 -.134226536336D+01 -.833320425426D-08
    -.406088343781D-09  .100000000000D+01  .153600000000D+04  .000000000000D+00
     .240000000000D+01  .000000000000D+00 -.465661287308D-08  .890000000000D+02
     .237606000000D+06  .400000000000D+01
 7 09  6 16 20  0  0.0  .169374980032D-04 -.682121026330D-12  .000000000000D+00
     .160000000000D+02  .365625000000D+01  .449840166220D-08 -.281406643920D+01
     .275671482086D-06  .268780125771D-02  .873766839504D-05  .515366681862D+04
     .244800000000D+06 -.353902578354D-07  .237019903715D+01  .316649675369D-07
     .967718360828D+00  .216906250000D+03  .287078069222D+01 -.796676041898D-08
     .352514683652D-09  .100000000000D+01  .153600000000D+04  .000000000000D+00
     .240000000000D+01  .000000000000D+00 -.107102096081D-07  .160000000000D+02
     .237606000000D+06  .400000000000D+01
 8 09  6 16 20  0  0.0 -.207922887057D-03 -.147792889038D-11  .000000000000D+00
     .280000000000D+02 -.968750000000D+00  .403123934587D-08  .273683349468D+01
     .670552253723D-07  .106351460563D-01  .875070691109D-05  .515364481354D+04
     .244800000000D+06 -.186264514923D-06  .243097124060D+01  .143423676491D-06
     .988954202552D+00  .227718750000D+03  .299231455295D+01 -.767460539241D-08
     .380730144653D-09  .100000000000D+01  .153600000000D+04  .000000000000D+00
     .340000000000D+01  .000000000000D+00 -.372529029846D-08  .280000000000D+02
     .237606000000D+06  .400000000000D+01
10 09  6 16 20  0  0.0 -.175992026925D-04 -.568434188608D-12  .000000000000D+00
     .350000000000D+02  .281562500000D+02  .475269796895D-08 -.179987823250D+00
     .169128179550D-05  .856890960131D-02  .437907874584D-05  .515361875916D+04
     .244800000000D+06  .521540641785D-07  .298930861910D+00  .134110450745D-06
     .958343136210D+00  .294156250000D+03  .627457505998D+00 -.850285417801D-08
     .764317551180D-10  .100000000000D+01  .153600000000D+04  .000000000000D+00
     .340000000000D+01  .000000000000D+00 -.279396772385D-08  .350000000000D+02
     .237606000000D+06  .400000000000D+01
11 09  6 16 20  0  0.0 -.675162300467D-05 -.147792889038D-11  .000000000000D+00
     .830000000000D+02  .677812500000D+02  .579631286827D-08 -.300293359880D+01
     .343658030033D-05  .939355953597D-02  .939890742302D-05  .515369270515D+04
     .244800000000D+06  .372529029846D-07 -.986371283169D+00 -.149011611938D-07
     .889196589876D+00  .159437500000D+03  .700017735097D+00 -.851428322550D-08
     .100004165575D-09  .100000000000D+01  .153600000000D+04  .000000000000D+00
     .240000000000D+01  .000000000000D+00 -.116415321827D-07  .830000000000D+02
     .237606000000D+06  .400000000000D+01
12 09  6 16 20  0  0.0 -.265348237008D-03  .579802872380D-11  .000000000000D+00
     .490000000000D+02 -.183437500000D+02  .463769317854D-08 -.281346621854D+01
    -.104494392872D-05  .331035396084D-02  .604428350925D-05  .515363647461D+04
     .244800000000D+06 -.447034835815D-07 -.286113789404D+01  .614672899246D-07
     .967409149686D+00  .265843750000D+03 -.678151441512D+00 -.805533553706D-08
     .357157734196D-12  .100000000000D+01  .153600000000D+04  .000000000000D+00
     .240000000000D+01  .000000000000D+00 -.116415321827D-07  .490000000000D+02
     .237606000000D+06  .400000000000D+01
13 09  6 16 20  0  0.0  .299547798932D-03  .795807864051D-12  .000000000000D+00
     .410000000000D+02 -.392500000000D+02  .380122976505D-08 -.515122667258D+00
    -.223144888878D-05  .414902693592D-02  .891461968422D-05  .515369777298D+04
     .244800000000D+06 -.130385160446D-07  .138047078562D+01  .000000000000D+00
     .994657080008D+00  .230906250000D+03  .159486356600D+01 -.781782564382D-08
    -.642883921553D-10  .100000000000D+01  .153600000000D+04  .000000000000D+00
     .240000000000D+01  .000000000000D+00 -.111758708954D-07  .410000000000D+02
     .237606000000D+06  .400000000000D+01
